ONEWEB-0427             
1 50499U 21132AG  25117.31995138  .00000080  00000+0  17050-3 0  9994
2 50499  87.9133  58.0907 0002182  85.1463 274.9919 13.18687098166802
ONEWEB-0429             
1 50500U 21132AH  25117.53493319  .00000080  00000+0  17081-3 0  9999
2 50500  87.9141  58.0733 0001841  78.0075 282.1263 13.18686008166805
ONEWEB-0430             
1 50501U 21132AJ  25117.52386825  .00000007  00000+0 -15913-4 0  9995
2 50501  87.9135  58.0696 0001675  85.8246 274.3078 13.18687288166840
ONEWEB-0432             
1 50502U 21132AK  25117.55548414  .00000080  00000+0  17023-3 0  9996
2 50502  87.9133  58.0525 0002377 104.2483 255.8914 13.18687824166804
ONEWEB-0440             
1 50503U 21132AL  25117.39108479  .00000088  00000+0  19111-3 0  9990
2 50503  87.9139  58.0834 0002039  68.6413 291.4937 13.18687682166774
ONEWEB-0450             
1 50504U 21132AM  25117.53664563  .00000055  00000+0  10730-3 0  9990
2 50504  87.9138  58.0831 0001656  76.6870 283.4447 13.18685530166824
ONEWEB-0410             
1 51622U 22012A   25117.46676270  .00000061  00000+0  12371-3 0  9990
2 51622  87.9029  88.6254 0003422  90.2937 269.8587 13.17649623158952
ONEWEB-0411             
1 51623U 22012B   25117.47549105 -.00000133  00000+0 -41674-3 0  9998
2 51623  87.8790 119.1481 0001620 105.9064 254.2242 13.10370269154842
